ONEWEB-0313             
1 49099U 21075AA  23059.51732558  .00000057  00000+0  11251-3 0  9995
2 49099  87.9068 245.1957 0002069 103.0569 257.0793 13.18003203 74954
ONEWEB-0313             
1 49099U 21075AA  23059.59324148  .00000058  00000+0  11433-3 0  9998
2 49099  87.9069 245.1805 0002070 103.0797 257.0566 13.18003059 75961
ONEWEB-0313             
1 49099U 21075AA  23059.89690405  .00000072  00000+0  15024-3 0  9999
2 49099  87.9070 245.1200 0002076 103.0177 257.1187 13.18003799 75006
ONEWEB-0313             
1 49099U 21075AA  23060.80789287  .00000196  00000+0  46943-3 0  9990
2 49099  87.9070 244.9384 0002096 102.4663 257.6704 13.18004170 76129
ONEWEB-0313             
1 49099U 21075AA  23060.88380996  .00000031  00000+0  47039-4 0  9998
2 49099  87.9071 244.9232 0002069 102.5522 257.5842 13.18002985 75131
ONEWEB-0313             
1 49099U 21075AA  23061.79479851  .00000080  00000+0  17070-3 0  9993
2 49099  87.9072 244.7416 0002067 101.9174 258.2190 13.18004033 75251
ONEWEB-0313             
1 49099U 21075AA  23062.47804162  .00000081  00000+0  17471-3 0  9992
2 49099  87.9075 244.6054 0002047 101.3653 258.7709 13.18002664 75344
ONEWEB-0313             
1 49099U 21075AA  23062.47804162  .00000081  00000+0  17471-3 0  9992
2 49099  87.9075 244.6054 0002047 101.3653 258.7709 13.18002664 76345
ONEWEB-0313             
1 49099U 21075AA  23062.85762003  .00000023  00000+0  25871-4 0  9991
2 49099  87.9076 244.5297 0002056 101.2691 258.8672 13.18003613 75394
